CCSDS_OMM_VERS = 2.0
CREATION_DATE  = 
ORIGINATOR     = 

OBJECT_NAME    = ISS OBJECT XX
OBJECT_ID      = 1998-067XX
CENTER_NAME    = EARTH
REF_FRAME      = TEME
TIME_SYSTEM    = UTC
MEAN_ELEMENT_THEORY = SGP/SGP4

EPOCH          = 2026-03-08T13:32:57.844896
MEAN_MOTION    = 15.74751003
ECCENTRICITY   = .00069978
INCLINATION    = 51.6209
RA_OF_ASC_NODE = 69.8598
ARG_OF_PERICENTER = 75.4922
MEAN_ANOMALY   = 284.6853

EPHEMERIS_TYPE = 0
CLASSIFICATION_TYPE = U
NORAD_CAT_ID   = 66911
ELEMENT_SET_NO = 999
REV_AT_EPOCH   = 1501
BSTAR          = .19397433E-2
MEAN_MOTION_DOT = .301889E-2
MEAN_MOTION_DDOT = 0

CCSDS_OMM_VERS = 2.0
CREATION_DATE  = 
ORIGINATOR     = 

OBJECT_NAME    = ISS OBJECT XY
OBJECT_ID      = 1998-067XY
CENTER_NAME    = EARTH
REF_FRAME      = TEME
TIME_SYSTEM    = UTC
MEAN_ELEMENT_THEORY = SGP/SGP4

EPOCH          = 2026-03-08T05:44:44.166912
MEAN_MOTION    = 15.63375791
ECCENTRICITY   = .00031514
INCLINATION    = 51.6269
RA_OF_ASC_NODE = 74.4704
ARG_OF_PERICENTER = 80.3151
MEAN_ANOMALY   = 279.8199

EPHEMERIS_TYPE = 0
CLASSIFICATION_TYPE = U
NORAD_CAT_ID   = 66912
ELEMENT_SET_NO = 999
REV_AT_EPOCH   = 1492
BSTAR          = .13699421E-2
MEAN_MOTION_DOT = .130266E-2
MEAN_MOTION_DDOT = 0

CCSDS_OMM_VERS = 2.0
CREATION_DATE  = 
ORIGINATOR     = 

OBJECT_NAME    = ISS OBJECT XZ
OBJECT_ID      = 1998-067XZ
CENTER_NAME    = EARTH
REF_FRAME      = TEME
TIME_SYSTEM    = UTC
MEAN_ELEMENT_THEORY = SGP/SGP4

EPOCH          = 2026-03-08T05:54:51.044832
MEAN_MOTION    = 15.51696524
ECCENTRICITY   = .00094218
INCLINATION    = 51.6305
RA_OF_ASC_NODE = 79.0203
ARG_OF_PERICENTER = 180.7238
MEAN_ANOMALY   = 179.3740

EPHEMERIS_TYPE = 0
CLASSIFICATION_TYPE = U
NORAD_CAT_ID   = 67683
ELEMENT_SET_NO = 999
REV_AT_EPOCH   = 456
BSTAR          = .89297909E-3
MEAN_MOTION_DOT = .54128E-3
MEAN_MOTION_DDOT = 0

CCSDS_OMM_VERS = 2.0
CREATION_DATE  = 
ORIGINATOR     = 

OBJECT_NAME    = GXIBA-1
OBJECT_ID      = 1998-067YA
CENTER_NAME    = EARTH
REF_FRAME      = TEME
TIME_SYSTEM    = UTC
MEAN_ELEMENT_THEORY = SGP/SGP4

EPOCH          = 2026-03-08T06:51:27.092736
MEAN_MOTION    = 15.54070328
ECCENTRICITY   = .00109475
INCLINATION    = 51.6303
RA_OF_ASC_NODE = 78.5330
ARG_OF_PERICENTER = 170.9783
MEAN_ANOMALY   = 189.1406

EPHEMERIS_TYPE = 0
CLASSIFICATION_TYPE = U
NORAD_CAT_ID   = 67684
ELEMENT_SET_NO = 999
REV_AT_EPOCH   = 457
BSTAR          = .16923761E-2
MEAN_MOTION_DOT = .113172E-2
MEAN_MOTION_DDOT = 0

CCSDS_OMM_VERS = 2.0
CREATION_DATE  = 
ORIGINATOR     = 

OBJECT_NAME    = CORAL
OBJECT_ID      = 1998-067YB
CENTER_NAME    = EARTH
REF_FRAME      = TEME
TIME_SYSTEM    = UTC
MEAN_ELEMENT_THEORY = SGP/SGP4

EPOCH          = 2026-03-08T15:05:15.239904
MEAN_MOTION    = 15.52082391
ECCENTRICITY   = .00113619
INCLINATION    = 51.6311
RA_OF_ASC_NODE = 77.0726
ARG_OF_PERICENTER = 178.8737
MEAN_ANOMALY   = 181.2281

EPHEMERIS_TYPE = 0
CLASSIFICATION_TYPE = U
NORAD_CAT_ID   = 67685
ELEMENT_SET_NO = 999
REV_AT_EPOCH   = 462
BSTAR          = .94707132E-3
MEAN_MOTION_DOT = .58319E-3
MEAN_MOTION_DDOT = 0

CCSDS_OMM_VERS = 2.0
CREATION_DATE  = 
ORIGINATOR     = 

OBJECT_NAME    = ISS OBJECT YC
OBJECT_ID      = 1998-067YC
CENTER_NAME    = EARTH
REF_FRAME      = TEME
TIME_SYSTEM    = UTC
MEAN_ELEMENT_THEORY = SGP/SGP4

EPOCH          = 2026-03-08T11:52:26.901120
MEAN_MOTION    = 15.52582009
ECCENTRICITY   = .00079257
INCLINATION    = 51.6310
RA_OF_ASC_NODE = 77.6801
ARG_OF_PERICENTER = 145.9342
MEAN_ANOMALY   = 214.2158

EPHEMERIS_TYPE = 0
CLASSIFICATION_TYPE = U
NORAD_CAT_ID   = 67686
ELEMENT_SET_NO = 999
REV_AT_EPOCH   = 460
BSTAR          = .11105263E-2
MEAN_MOTION_DOT = .69722E-3
MEAN_MOTION_DDOT = 0

CCSDS_OMM_VERS = 2.0
CREATION_DATE  = 
ORIGINATOR     = 

OBJECT_NAME    = LEOPARD
OBJECT_ID      = 1998-067YD
CENTER_NAME    = EARTH
REF_FRAME      = TEME
TIME_SYSTEM    = UTC
MEAN_ELEMENT_THEORY = SGP/SGP4

EPOCH          = 2026-03-08T07:24:26.872704
MEAN_MOTION    = 15.51875609
ECCENTRICITY   = .00078243
INCLINATION    = 51.6314
RA_OF_ASC_NODE = 78.6871
ARG_OF_PERICENTER = 149.3708
MEAN_ANOMALY   = 210.7740

EPHEMERIS_TYPE = 0
CLASSIFICATION_TYPE = U
NORAD_CAT_ID   = 67687
ELEMENT_SET_NO = 999
REV_AT_EPOCH   = 449
BSTAR          = .96299264E-3
MEAN_MOTION_DOT = .58789E-3
MEAN_MOTION_DDOT = 0

CCSDS_OMM_VERS = 2.0
CREATION_DATE  = 
ORIGINATOR     = 

OBJECT_NAME    = ISS OBJECT YE
OBJECT_ID      = 1998-067YE
CENTER_NAME    = EARTH
REF_FRAME      = TEME
TIME_SYSTEM    = UTC
MEAN_ELEMENT_THEORY = SGP/SGP4

EPOCH          = 2026-03-08T11:55:46.214688
MEAN_MOTION    = 15.52342868
ECCENTRICITY   = .00078669
INCLINATION    = 51.6311
RA_OF_ASC_NODE = 77.6953
ARG_OF_PERICENTER = 146.9330
MEAN_ANOMALY   = 213.2153

EPHEMERIS_TYPE = 0
CLASSIFICATION_TYPE = U
NORAD_CAT_ID   = 67688
ELEMENT_SET_NO = 999
REV_AT_EPOCH   = 452
BSTAR          = .10466061E-2
MEAN_MOTION_DOT = .65076E-3
MEAN_MOTION_DDOT = 0

CCSDS_OMM_VERS = 2.0
CREATION_DATE  = 
ORIGINATOR     = 

OBJECT_NAME    = CREW DRAGON 12
OBJECT_ID      = 2026-031A
CENTER_NAME    = EARTH
REF_FRAME      = TEME
TIME_SYSTEM    = UTC
MEAN_ELEMENT_THEORY = SGP/SGP4

EPOCH          = 2026-03-08T09:59:22.309152
MEAN_MOTION    = 15.48526204
ECCENTRICITY   = .00080653
INCLINATION    = 51.6319
RA_OF_ASC_NODE = 78.6521
ARG_OF_PERICENTER = 170.0958
MEAN_ANOMALY   = 190.0190

EPHEMERIS_TYPE = 0
CLASSIFICATION_TYPE = U
NORAD_CAT_ID   = 67796
ELEMENT_SET_NO = 999
REV_AT_EPOCH   = 55602
BSTAR          = .21617095E-3
MEAN_MOTION_DOT = .11291E-3
MEAN_MOTION_DDOT = 0

